ONEWEB-0113             
1 48050U 21025J   21259.58334491  .00029933  00000-0  81673-1 0  9995
2 48050  87.8885 304.9266 0001687  90.8644  37.4815 13.13464485  3275
ONEWEB-0112             
1 48051U 21025K   21259.58334491  .00029872  00000-0  81515-1 0  9993
2 48051  87.8861 304.9951 0001938  91.2880  96.9665 13.13457005  3292
ONEWEB-0156             
1 48052U 21025L   21259.58334491  .00029930  00000-0  81666-1 0  9996
2 48052  87.8847 304.9141 0002049  87.9407  50.3665 13.13463109  3295
ONEWEB-0161             
1 48053U 21025M   21259.58334491  .00029450  00000-0  80373-1 0  9998
2 48053  87.8831 304.9990 0001926  93.1367 175.0948 13.13453081  3307
ONEWEB-0158             
1 48054U 21025N   21259.58334491  .00029753  00000-0  81183-1 0  9995
2 48054  87.8856 304.9063 0001644  83.2636 354.9127 13.13464525  3304
ONEWEB-0157             
1 48055U 21025P   21259.58334491  .00029535  00000-0  80600-1 0  9997
2 48055  87.8858 304.9578 0002403 101.7845 226.4954 13.13455930  3323
ONEWEB-0162             
1 48056U 21025Q   21259.58334491  .00029938  00000-0  81715-1 0  9993
2 48056  87.8892 304.9248 0002098  82.8078  65.5847 13.13439772  3298
ONEWEB-0155             
1 48057U 21025R   21259.58334491  .00029698  00000-0  81040-1 0  9998
2 48057  87.8836 304.9911 0002042  95.6491 302.6003 13.13458596  3333
ONEWEB-0149             
1 48058U 21025S   21259.58334491  .00029420  00000-0  80290-1 0  9998
2 48058  87.8782 304.9233 0002495  85.5094 222.6777 13.13452893  3311
ONEWEB-0148             
1 48059U 21025T   21259.58334491  .00029882  00000-0  81539-1 0  9998
2 48059  87.8848 304.8996 0002948  92.9988  25.2068 13.13459840  3305
ONEWEB-0160             
1 48060U 21025U   21259.58334491  .00029618  00000-0  80820-1 0  9999
2 48060  87.8823 304.9189 0001162  45.3138 342.8539 13.13460978  3351
ONEWEB-0163             
1 48061U 21025V   21259.58334491  .00029883  00000-0  81540-1 0  9994
2 48061  87.8855 304.9374 0002524 110.2965 357.9729 13.13460407  3306
ONEWEB-0159             
1 48062U 21025W   21259.58334491  .00029795  00000-0  81305-1 0  9996
2 48062  87.8836 304.8899 0002493 100.0694  78.2763 13.13457381  3272
ONEWEB-0164             
1 48063U 21025X   21259.58334491  .00029349  00000-0  80092-1 0  9994
2 48063  87.8828 304.9016 0001423 112.5443 135.7506 13.13458020  3307
ONEWEB-0167             
1 48064U 21025Y   21259.58334491  .00029842  00000-0  81430-1 0  9990
2 48064  87.8896 304.9209 0002231 100.2662 357.9487 13.13460788  3335
ONEWEB-0166             
1 48065U 21025Z   21259.58334491  .00029659  00000-0  80938-1 0  9999
2 48065  87.8856 305.0062 0002215  90.8072 267.4512 13.13456082  3327
ONEWEB-0151             
1 48066U 21025AA  21259.58334491  .00029560  00000-0  80667-1 0  9990
2 48066  87.8859 304.9407 0001562 114.2310 233.9851 13.13456003  3295
ONEWEB-0170             
1 48067U 21025AB  21259.58334491  .00029469  00000-0  80419-1 0  9994
2 48067  87.8887 304.9315 0001123 143.0289 175.1580 13.13457508  3302
ONEWEB-0168             
1 48068U 21025AC  21259.58334491  .00029608  00000-0  80776-1 0  9996
2 48068  87.8887 304.9363 0002161  89.7977 287.9594 13.13474807  3318
ONEWEB-0173             
1 48069U 21025AD  21259.58334491  .00029684  00000-0  81034-1 0  9999
2 48069  87.8845 304.9304 0002283 116.6560 302.1371 13.13430519  3293
ONEWEB-0171             
1 48070U 21025AE  21259.58334491  .00029371  00000-0  80156-1 0  9998
2 48070  87.8818 304.9368 0002420  87.3880 170.8459 13.13453119  3329
ONEWEB-0172             
1 48071U 21025AF  21259.58334491  .00000014  00000-0  00000-0 0  9991
2 48071  88.0548 303.1027 0008681  41.8994  92.2378 13.52531710  3450
ONEWEB-0174             
1 48072U 21025AG  21259.58334491  .00029730  00000-0  81136-1 0  9998
2 48072  87.8874 304.9302 0002929  89.1391 339.2832 13.13450166  3305
ONEWEB-0175             
1 48073U 21025AH  21259.58334491  .00029527  00000-0  80583-1 0  9998
2 48073  87.8867 305.0178 0001270 110.4779 187.7493 13.13452236  3306
ONEWEB-0177             
1 48074U 21025AJ  21259.58334491  .00029474  00000-0  80429-1 0  9999
2 48074  87.8801 304.9501 0002588 120.9431 117.3484 13.13459749  3302
ONEWEB-0178             
1 48075U 21025AK  21259.58334491  .00033846  00000-0  92315-1 0  9995
2 48075  87.8819 304.9937 0002117  95.1198  62.9297 13.13464147  3345
ONEWEB-0108             
1 48076U 21025AL  21259.58334491  .00029557  00000-0  80656-1 0  9995
2 48076  87.8852 304.9542 0002205  73.1112 265.1391 13.13459033  3299
ONEWEB-0169             
1 48077U 21025AM  21259.58334491  .00029705  00000-0  81057-1 0  9997
2 48077  87.8850 304.9172 0002395  80.2873 117.9770 13.13459808  3307
ONEWEB-0176             
1 48210U 21031A   21259.58334491 -.00018136  00000-0 -49025-1 0  9990
2 48210  87.8970 274.4322 0002256 100.1751 152.4210 13.14535692 21715
ONEWEB-0184             
1 48211U 21031B   21259.58334491 -.00015059  00000-0 -40669-1 0  9997
2 48211  87.9036 274.4861 0001567 114.5764 256.7434 13.14589526 20401
ONEWEB-0179             
1 48212U 21031C   21259.58334491 -.00019332  00000-0 -52277-1 0  9994
2 48212  87.8998 274.4863 0002323 100.0796  62.3889 13.14516954 20451
ONEWEB-0180             
1 48213U 21031D   21259.58334491 -.00015014  00000-0 -40750-1 0  9991
2 48213  87.9034 274.4867 0001735  79.7607 284.2572 13.14245798 20333
ONEWEB-0218             
1 48214U 21031E   21259.58334491 -.00039948  00000-0 -10742+0 0  9990
2 48214  87.8993 274.4863 0001711 115.4318 151.4638 13.15033191  3314
ONEWEB-0209             
1 48215U 21031F   21259.58334491 -.00015043  00000-0 -41262-1 0  9994
2 48215  87.9012 274.4757 0002284 107.0237 251.1147 13.13524444  3310
ONEWEB-0198             
1 48216U 21031G   21259.58334491  .00000013  00000-0  00000-0 0  9998
2 48216  87.9114 274.4185 0001249  98.3145 267.6011 13.20371029  3329
ONEWEB-0189             
1 48217U 21031H   21259.58334491 -.00015557  00000-0 -42060-1 0  9993
2 48217  87.8958 274.4914 0002017 117.5743 204.8524 13.14513628  3280
ONEWEB-0196             
1 48218U 21031J   21259.58334491 -.00017321  00000-0 -47487-1 0  9993
2 48218  87.9017 274.4355 0001564  87.4332   7.3538 13.13567281  3286
ONEWEB-0183             
1 48219U 21031K   21259.58334491 -.00019559  00000-0 -52386-1 0  9993
2 48219  87.9057 274.4401 0001917 103.8948  84.3710 13.15172612  3291
ONEWEB-0185             
1 48220U 21031L   21259.58334491 -.00015813  00000-0 -42756-1 0  9994
2 48220  87.8978 274.4846 0002324  93.7617 318.7526 13.14509341  3347
ONEWEB-0187             
1 48221U 21031M   21259.58334491 -.00019425  00000-0 -52531-1 0  9990
2 48221  87.8991 274.4878 0002164  95.0895  77.3802 13.14516178  3300
ONEWEB-0192             
1 48222U 21031N   21259.58334491 -.00019724  00000-0 -53349-1 0  9991
2 48222  87.8967 274.4680 0001712 104.7589 197.7595 13.14506406  3300
ONEWEB-0219             
1 48223U 21031P   21259.58334491 -.00015347  00000-0 -41495-1 0  9998
2 48223  87.8985 274.4641 0001928  98.6753 293.7848 13.14511331  3290
ONEWEB-0202             
1 48224U 21031Q   21259.58334491 -.00018470  00000-0 -49880-1 0  9995
2 48224  87.8984 274.4975 0002489 139.8389 346.5657 13.14604989  3305
ONEWEB-0204             
1 48225U 21031R   21259.58334491 -.00019314  00000-0 -52228-1 0  9994
2 48225  87.8950 274.4906 0002046  68.3220 133.9941 13.14519412  3278
ONEWEB-0205             
1 48226U 21031S   21259.58334491 -.00016859  00000-0 -45587-1 0  9996
2 48226  87.8990 274.4678 0000818 131.9398 310.7196 13.14509060  3328
ONEWEB-0206             
1 48227U 21031T   21259.58334491 -.00019501  00000-0 -47598-1 0  9998
2 48227  87.9220 274.4732 0003145  98.4203  43.8338 13.21473853  3347
ONEWEB-0182             
1 48228U 21031U   21259.58334491  .00045487  00000-0  12198+0 0  9995
2 48228  87.8987 274.4966 0002530 105.6172 123.9913 13.14542829  3328
ONEWEB-0186             
1 48229U 21031V   21259.58334491 -.00019466  00000-0 -52642-1 0  9996
2 48229  87.8976 274.4812 0002160 105.4234  77.0604 13.14514619  3347
ONEWEB-0181             
1 48230U 21031W   21259.58334491 -.00015871  00000-0 -43481-1 0  9995
2 48230  87.8964 274.4067 0001816  93.4158 222.9711 13.13611859  3305
ONEWEB-0188             
1 48231U 21031X   21259.58334491 -.00017587  00000-0 -47544-1 0  9996
2 48231  87.8987 274.5010 0002281  96.7335   5.4579 13.14527918  3321
ONEWEB-0220             
1 48232U 21031Y   21259.58334491 -.00016952  00000-0 -45838-1 0  9996
2 48232  87.8980 274.4649 0002388 105.9216 176.5252 13.14509405  3342
ONEWEB-0165             
1 48233U 21031Z   21259.58334491 -.00018799  00000-0 -49885-1 0  9994
2 48233  87.9020 274.4923 0002025 102.1961  31.5948 13.15804406  3340
ONEWEB-0199             
1 48234U 21031AA  21259.58334491 -.00018878  00000-0 -51004-1 0  9999
2 48234  87.9008 274.5012 0001933 107.9709 117.1568 13.14577464  3313
ONEWEB-0203             
1 48235U 21031AB  21259.58334491 -.00017470  00000-0 -47242-1 0  9996
2 48235  87.9021 274.3809 0001229  99.1646 173.3841 13.14508542  3321
ONEWEB-0197             
1 48236U 21031AC  21259.58334491 -.00015288  00000-0 -41632-1 0  9999
2 48236  87.8973 274.4934 0002191  99.2706 234.9965 13.14019830  3311
ONEWEB-0194             
1 48237U 21031AD  21259.58334491 -.00018334  00000-0 -49578-1 0  9992
2 48237  87.9001 274.4885 0001336  80.6008  41.7312 13.14514031  3345
ONEWEB-0193             
1 48238U 21031AE  21259.58334491 -.00015522  00000-0 -41959-1 0  9994
2 48238  87.8972 274.4923 0001611 102.5449 299.8170 13.14525344  3307
ONEWEB-0191             
1 48239U 21031AF  21259.58334491 -.00014229  00000-0 -38472-1 0  9994
2 48239  87.8992 274.5041 0001560  95.8653 256.4432 13.14507267  3300
ONEWEB-0195             
1 48240U 21031AG  21259.58334491 -.00017224  00000-0 -46570-1 0  9992
2 48240  87.8978 274.4840 0002203 114.5715 337.7792 13.14515774  3343
